{
    "links": {
        "self": "http://www.neowsapp.com/rest/v1/neo/54016330?api_key=iIulBulltgU6a56xZRHN4H3l9WmuAYTsLGpBGhQ2"
    },
    "id": "54016330",
    "neo_reference_id": "54016330",
    "name": "(2020 FR3)",
    "designation": "2020 FR3",
    "nasa_jpl_url": "http://ssd.jpl.nasa.gov/sbdb.cgi?sstr=54016330",
    "absolute_magnitude_h": 20.67,
    "estimated_diameter": {
        "kilometers": {
            "estimated_diameter_min": 0.1952337862,
            "estimated_diameter_max": 0.4365560173
        },
        "meters": {
            "estimated_diameter_min": 195.2337861562,
            "estimated_diameter_max": 436.5560173498
        },
        "miles": {
            "estimated_diameter_min": 0.1213126129,
            "estimated_diameter_max": 0.2712632491
        },
        "feet": {
            "estimated_diameter_min": 640.5308149726,
            "estimated_diameter_max": 1432.270443962
        }
    },
    "is_potentially_hazardous_asteroid": true,
    "close_approach_data": [
        {
            "close_approach_date": "1984-01-09",
            "close_approach_date_full": "1984-Jan-09 21:21",
            "epoch_date_close_approach": 442531260000,
            "relative_velocity": {
                "kilometers_per_second": "13.6738899811",
                "kilometers_per_hour": "49226.0039318549",
                "miles_per_hour": "30587.1244986573"
            },
            "miss_distance": {
                "astronomical": "0.2769403472",
                "lunar": "107.7297950608",
                "kilometers": "41429686.058180464",
                "miles": "25743213.1878958432"
            },
            "orbiting_body": "Earth"
        },
        {
            "close_approach_date": "2020-02-29",
            "close_approach_date_full": "2020-Feb-29 19:56",
            "epoch_date_close_approach": 1583006160000,
            "relative_velocity": {
                "kilometers_per_second": "21.1942803223",
                "kilometers_per_hour": "76299.4091603383",
                "miles_per_hour": "47409.4856529891"
            },
            "miss_distance": {
                "astronomical": "0.127201127",
                "lunar": "49.481238403",
                "kilometers": "19029017.66079949",
                "miles": "11824083.284393362"
            },
            "orbiting_body": "Earth"
        },
        {
            "close_approach_date": "2022-09-06",
            "close_approach_date_full": "2022-Sep-06 06:19",
            "epoch_date_close_approach": 1662445140000,
            "relative_velocity": {
                "kilometers_per_second": "25.6972764268",
                "kilometers_per_hour": "92510.1951364685",
                "miles_per_hour": "57482.2376391018"
            },
            "miss_distance": {
                "astronomical": "0.2725347975",
                "lunar": "106.0160362275",
                "kilometers": "40770625.206881325",
                "miles": "25333691.764659285"
            },
            "orbiting_body": "Earth"
        }
    ],
    "orbital_data": {
        "orbit_id": "8",
        "orbit_determination_date": "2020-04-10 06:27:03",
        "first_observation_date": "2020-03-22",
        "last_observation_date": "2020-04-10",
        "data_arc_in_days": 19,
        "observations_used": 81,
        "orbit_uncertainty": "8",
        "minimum_orbit_intersection": ".0106858",
        "jupiter_tisserand_invariant": "3.564",
        "epoch_osculation": "2458932.5",
        "eccentricity": ".6475146951123653",
        "semi_major_axis": "1.973259492847666",
        "inclination": "8.873054681855963",
        "ascending_node_longitude": "174.6240054907437",
        "orbital_period": "1012.452665317956",
        "perihelion_distance": ".6955449739588292",
        "perihelion_argument": "261.6551341259244",
        "aphelion_distance": "3.250974011736503",
        "perihelion_time": "2458862.991798397027",
        "mean_anomaly": "24.71518267889783",
        "mean_motion": ".3555721786627365",
        "equinox": "J2000",
        "orbit_class": {
            "orbit_class_type": "APO",
            "orbit_class_description": "Near-Earth asteroid orbits which cross the Earth’s orbit similar to that of 1862 Apollo",
            "orbit_class_range": "a (semi-major axis) > 1.0 AU; q (perihelion) < 1.017 AU"
        }
    },
    "is_sentry_object": false
}